ISS (ZARYA)             
1 25544U 98067A   26035.92128257  .00010436  00000+0  20116-3 0  9998
2 25544  51.6314 234.3429 0011123  65.2841 294.9304 15.48398202551254
CSS (TIANHE)            
1 48274U 21035A   26036.06434163  .00017371  00000+0  21887-3 0  9997
2 48274  41.4675  46.4558 0005736   2.2011 357.8851 15.59199103272510
ISS (NAUKA)             
1 49044U 21066A   26035.01771291  .00010297  00000+0  19874-3 0  9990
2 49044  51.6311 238.8105 0011107  61.9619 298.2491 15.48378125230441
FREGAT DEB              
1 49271U 11037PF  26035.28521392  .00044732  00000+0  76173-1 0  9997
2 49271  51.6559  40.6800 0925340 342.7791  14.3520 12.37770110208554
CSS (WENTIAN)           
1 53239U 22085A   26035.29570937  .00017580  00000+0  22165-3 0  9996
2 53239  41.4675  51.1227 0005972 356.5106   3.5690 15.59172508173847
CSS (MENGTIAN)          
1 54216U 22143A   26035.29570937  .00017580  00000+0  22165-3 0  9997
2 54216  41.4675  51.1227 0005972 356.5106   3.5690 15.59172508158644
PROGRESS-MS 31          
1 64751U 25146A   26035.01771291  .00010297  00000+0  19874-3 0  9995
2 64751  51.6311 238.8105 0011107  61.9619 298.2491 15.48378125  6758
TIANZHOU-9              
1 64786U 25149A   26035.29570937  .00017580  00000+0  22165-3 0  9999
2 64786  41.4675  51.1227 0005972 356.5106   3.5690 15.59172508255308
DRAGON CRS-33           
1 65304U 25186A   26035.01771291  .00010297  00000+0  19874-3 0  9994
2 65304  51.6311 238.8105 0011107  61.9619 298.2491 15.48378125   117
PROGRESS-MS 32          
1 65586U 25204A   26035.01771291  .00010297  00000+0  19874-3 0  9997
2 65586  51.6311 238.8105 0011107  61.9619 298.2491 15.48378125   276
CYGNUS NG-23            
1 65616U 25208A   26035.01771291  .00010297  00000+0  19874-3 0  9995
2 65616  51.6311 238.8105 0011107  61.9619 298.2491 15.48378125   225
1998-067XK              
1 65731U 98067XK  26035.68271661  .00241544  00000+0  11141-2 0  9994
2 65731  51.6223 220.7082 0003525 230.7997 129.2693 15.82313285 21638
